OBJECT_NAME,OBJECT_ID,EPOCH,MEAN_MOTION,ECCENTRICITY,INCLINATION,RA_OF_ASC_NODE,ARG_OF_PERICENTER,MEAN_ANOMALY,EPHEMERIS_TYPE,CLASSIFICATION_TYPE,NORAD_CAT_ID,ELEMENT_SET_NO,REV_AT_EPOCH,BSTAR,MEAN_MOTION_DOT,MEAN_MOTION_DDOT
TJS-7,2021-077A,2026-07-23T07:37:43.936032,1.00273368,.00030172,0.2634,263.6011,120.2889,292.1058,0,U,49115,999,991,0,-.119E-5,0
CHINASAT 9B,2021-080A,2026-07-21T20:24:23.993280,1.00270380,.00026471,0.0456,245.1283,253.8482,208.1378,0,U,49125,999,1799,0,-.31E-5,0
SHIJIAN-21 (SJ-21),2021-094A,2026-07-23T06:48:31.947840,1.00274857,.00514561,5.1960,60.9581,168.8309,301.3905,0,U,49330,999,572,0,-.347E-5,0
SES-17,2021-095A,2026-07-23T05:22:41.287008,1.00272704,.00013842,0.0217,51.3650,78.6062,184.5676,0,U,49332,999,1821,0,-.268E-5,0
SYRACUSE 4A,2021-095B,2026-07-23T06:21:26.997984,1.00270025,.00014711,0.0230,62.9939,54.9090,323.9681,0,U,49333,999,1830,0,0,0
QZS-1R (MICHIBIKI-1R),2021-096A,2026-07-19T13:27:51.734016,1.00244085,.07555125,37.5263,79.1015,272.3091,279.1178,0,U,49336,999,1733,0,-.322E-5,0
ZHONGXING-1D,2021-114A,2026-07-23T06:45:32.189184,1.00273263,.00001673,0.0353,226.3962,106.9756,199.1988,0,U,49505,999,1718,0,-.331E-5,0
STPSAT-6,2021-118A,2026-07-23T07:30:59.153760,1.00271233,.00007835,0.4112,85.0669,261.7635,315.1406,0,U,49817,999,1693,0,-.4E-6,0
EXPRESS AMU-7,2021-123A,2026-07-23T05:07:07.999392,1.00272320,.00003297,0.0297,273.1390,106.1053,143.4862,0,U,50001,999,1690,0,-.238E-5,0
EXPRESS AMU-3,2021-123B,2026-07-22T21:05:29.908896,1.00272483,.00001762,0.0084,297.0369,60.1577,2.7934,0,U,50002,999,738,0,-.317E-5,0
TIANLIAN 2-02,2021-124A,2026-07-22T20:41:17.143008,1.00272928,.00014432,0.8913,85.5687,149.0671,187.2502,0,U,50005,999,1697,0,-.11E-6,0
TURKSAT 5B,2021-126A,2026-07-23T06:20:27.094272,1.00271096,.00020243,0.0706,338.2390,20.4008,79.4436,0,U,50212,999,1666,0,.151E-5,0
INMARSAT 6-F1,2021-128A,2026-07-23T03:07:05.992608,1.00271345,.00002858,0.0164,49.8251,33.5427,348.0158,0,U,50319,999,1661,0,-.167E-5,0
SHIYAN-12 01 (SY-12 01),2021-129A,2026-07-22T06:20:25.153728,1.00055591,.0002594,3.7626,79.4374,292.5409,54.8525,0,U,50321,999,1684,0,.142E-5,0
SHIYAN-12 02 (SY-12 02),2021-129B,2026-07-22T12:48:38.790720,1.00474110,.0003285,3.7622,79.4327,66.3052,102.4546,0,U,50322,999,1685,0,-.361E-5,0
TJS-9,2021-135A,2026-07-23T06:47:39.484896,1.00270008,.0002387,0.0648,99.5608,338.1379,102.4672,0,U,50574,999,1679,0,-.294E-5,0
GOES 18,2022-021A,2026-07-23T07:17:29.025888,1.00271141,.00005537,0.0154,76.4488,69.0245,127.9320,0,U,51850,999,695,0,0,0
ZHONGXING-6D,2022-038A,2026-07-19T19:49:46.791264,1.00267596,.00007886,0.0045,101.1810,94.3887,164.4279,0,U,52255,999,1575,0,0,0
NILESAT 301,2022-061A,2026-07-23T06:06:28.433664,1.00270870,.00036873,0.0517,334.6103,107.2441,303.7238,0,U,52817,999,1509,0,-.54E-6,0
CMS-02 (GSAT-24),2022-067A,2026-07-23T03:06:51.016896,1.00272646,.00007503,0.0524,247.5959,122.9912,59.9858,0,U,52903,999,1496,0,-.16E-5,0
MEASAT 3D,2022-067B,2026-07-23T03:09:13.290048,1.00272035,.00002983,0.0610,291.3877,184.6879,323.5917,0,U,52904,999,1501,0,-.237E-5,0
SES-22,2022-071A,2026-07-23T07:15:33.638688,1.00270186,.00013718,0.0315,278.3513,185.2803,167.2851,0,U,52933,999,788,0,.109E-5,0
WFOV (USA 332),2022-073A,2026-07-22T23:51:56.618784,1.00274032,.00008726,3.8001,78.0741,180.3404,159.6195,0,U,52940,999,1472,0,-.361E-5,0
TIANLIAN 2-03,2022-078A,2026-07-23T06:11:27.954816,1.00270265,.00006814,0.7599,77.5660,28.6738,298.2109,0,U,53100,999,1490,0,.75E-6,0
SBIRS GEO-6 (USA 336),2022-092A,2026-07-23T06:48:09.437184,1.00271983,.00020603,3.1980,318.0880,155.6253,68.3404,0,U,53355,999,1459,0,-.283E-5,0
EUTELSAT KONNECT VHTS,2022-110A,2026-07-23T06:09:13.170816,1.00272134,.0003028,0.0573,99.6061,352.6893,303.7084,0,U,53765,999,719,0,.22E-6,0
ZHONGXING-1E,2022-112A,2026-07-21T15:27:20.268576,1.00272538,.00006756,0.0431,226.7079,37.4095,348.5332,0,U,53813,999,1419,0,-.148E-5,0
SES-20,2022-123A,2026-07-22T14:15:09.822816,1.00270351,.00021658,0.0145,69.9943,23.5397,317.4841,0,U,53960,999,1388,0,-.97E-6,0
SES-21,2022-123B,2026-07-23T05:45:21.525408,1.00268014,.00009307,0.0365,43.6790,84.0576,128.6679,0,U,53961,999,757,0,0,0
GALAXY 33 (G-33),2022-128A,2026-07-23T05:43:38.598816,1.00271197,.00020366,0.0151,12.1613,101.4803,140.2386,0,U,54026,999,1410,0,.84E-6,0
GALAXY 34 (G-34),2022-128B,2026-07-23T02:54:17.441280,1.00266055,.00018626,0.0091,41.8965,74.8200,98.7102,0,U,54027,999,1427,0,.64E-6,0
ANGOSAT 2,2022-131A,2026-07-23T00:02:38.584608,1.00273888,.0000237,0.0178,127.9901,2.4626,193.9540,0,U,54033,999,1383,0,.14E-5,0
