TJS-7                   
1 49115U 21077A   26204.31786963 -.00000119  00000+0  00000+0 0  9994
2 49115   0.2634 263.6011 0003017 120.2889 292.1058  1.00273368  9913
CHINASAT 9B             
1 49125U 21080A   26202.85027770 -.00000310  00000+0  00000+0 0  9993
2 49125   0.0456 245.1283 0002647 253.8482 208.1378  1.00270380 17990
SHIJIAN-21 (SJ-21)      
1 49330U 21094A   26204.28370310 -.00000347  00000+0  00000+0 0  9996
2 49330   5.1960  60.9581 0051456 168.8309 301.3905  1.00274857  5726
SES-17                  
1 49332U 21095A   26204.22408897 -.00000268  00000+0  00000+0 0  9997
2 49332   0.0217  51.3650 0001384  78.6062 184.5676  1.00272704 18210
SYRACUSE 4A             
1 49333U 21095B   26204.26489581  .00000000  00000+0  00000+0 0  9994
2 49333   0.0230  62.9939 0001471  54.9090 323.9681  1.00270025 18308
QZS-1R (MICHIBIKI-1R)   
1 49336U 21096A   26200.56101544 -.00000322  00000+0  00000+0 0  9995
2 49336  37.5263  79.1015 0755512 272.3091 279.1178  1.00244085 17338
ZHONGXING-1D            
1 49505U 21114A   26204.28162256 -.00000331  00000+0  00000+0 0  9994
2 49505   0.0353 226.3962 0000167 106.9756 199.1988  1.00273263 17180
STPSAT-6                
1 49817U 21118A   26204.31318465 -.00000040  00000+0  00000+0 0  9990
2 49817   0.4112  85.0669 0000783 261.7635 315.1406  1.00271233 16939
EXPRESS AMU-7           
1 50001U 21123A   26204.21328703 -.00000238  00000+0  00000+0 0  9997
2 50001   0.0297 273.1390 0000329 106.1053 143.4862  1.00272320 16902
EXPRESS AMU-3           
1 50002U 21123B   26203.87881839 -.00000317  00000+0  00000+0 0  9991
2 50002   0.0084 297.0369 0000176  60.1577   2.7934  1.00272483  7387
TIANLIAN 2-02           
1 50005U 21124A   26203.86200397 -.00000011  00000+0  00000+0 0  9999
2 50005   0.8913  85.5687 0001443 149.0671 187.2502  1.00272928 16971
TURKSAT 5B              
1 50212U 21126A   26204.26420248  .00000151  00000+0  00000+0 0  9999
2 50212   0.0706 338.2390 0002024  20.4008  79.4436  1.00271096 16663
INMARSAT 6-F1           
1 50319U 21128A   26204.12993047 -.00000167  00000+0  00000+0 0  9994
2 50319   0.0164  49.8251 0000285  33.5427 348.0158  1.00271345 16615
SHIYAN-12 01 (SY-12 01) 
1 50321U 21129A   26203.26418002  .00000142  00000+0  00000+0 0  9997
2 50321   3.7626  79.4374 0002594 292.5409  54.8525  1.00055591 16846
SHIYAN-12 02 (SY-12 02) 
1 50322U 21129B   26203.53378230 -.00000361  00000+0  00000+0 0  9990
2 50322   3.7622  79.4327 0003285  66.3052 102.4546  1.00474110 16856
TJS-9                   
1 50574U 21135A   26204.28309589 -.00000294  00000+0  00000+0 0  9995
2 50574   0.0648  99.5608 0002387 338.1379 102.4672  1.00270008 16795
GOES 18                 
1 51850U 22021A   26204.30380817  .00000000  00000+0  00000+0 0  9998
2 51850   0.0154  76.4488 0000553  69.0245 127.9320  1.00271141  6958
ZHONGXING-6D            
1 52255U 22038A   26200.82623601  .00000000  00000+0  00000+0 0  9990
2 52255   0.0045 101.1810 0000788  94.3887 164.4279  1.00267596 15751
NILESAT 301             
1 52817U 22061A   26204.25449576 -.00000054  00000+0  00000+0 0  9998
2 52817   0.0517 334.6103 0003687 107.2441 303.7238  1.00270870 15097
CMS-02 (GSAT-24)        
1 52903U 22067A   26204.12975714 -.00000160  00000+0  00000+0 0  9992
2 52903   0.0524 247.5959 0000750 122.9912  59.9858  1.00272646 14963
MEASAT 3D               
1 52904U 22067B   26204.13140382 -.00000237  00000+0  00000+0 0  9994
2 52904   0.0610 291.3877 0000298 184.6879 323.5917  1.00272035 15015
SES-22                  
1 52933U 22071A   26204.30247267  .00000109  00000+0  00000+0 0  9997
2 52933   0.0315 278.3513 0001371 185.2803 167.2851  1.00270186  7889
WFOV (USA 332)          
1 52940U 22073A   26203.99440531 -.00000361  00000+0  00000+0 0  9991
2 52940   3.8001  78.0741 0000872 180.3404 159.6195  1.00274032 14727
TIANLIAN 2-03           
1 53100U 22078A   26204.25796244  .00000075  00000+0  00000+0 0  9991
2 53100   0.7599  77.5660 0000681  28.6738 298.2109  1.00270265 14909
SBIRS GEO-6 (USA 336)   
1 53355U 22092A   26204.28344256 -.00000283  00000+0  00000+0 0  9996
2 53355   3.1980 318.0880 0002060 155.6253  68.3404  1.00271983 14592
EUTELSAT KONNECT VHTS   
1 53765U 22110A   26204.25640244  .00000022  00000+0  00000+0 0  9995
2 53765   0.0573  99.6061 0003028 352.6893 303.7084  1.00272134  7195
ZHONGXING-1E            
1 53813U 22112A   26202.64398459 -.00000148  00000+0  00000+0 0  9990
2 53813   0.0431 226.7079 0000675  37.4095 348.5332  1.00272538 14190
SES-20                  
1 53960U 22123A   26203.59386369 -.00000097  00000+0  00000+0 0  9990
2 53960   0.0145  69.9943 0002165  23.5397 317.4841  1.00270351 13885
SES-21                  
1 53961U 22123B   26204.23983247  .00000000  00000+0  00000+0 0  9994
2 53961   0.0365  43.6790 0000930  84.0576 128.6679  1.00268014  7571
GALAXY 33 (G-33)        
1 54026U 22128A   26204.23864119  .00000084  00000+0  00000+0 0  9990
2 54026   0.0151  12.1613 0002036 101.4803 140.2386  1.00271197 14106
GALAXY 34 (G-34)        
1 54027U 22128B   26204.12103520  .00000064  00000+0  00000+0 0  9999
2 54027   0.0091  41.8965 0001862  74.8200  98.7102  1.00266055 14277
ANGOSAT 2               
1 54033U 22131A   26204.00183547  .00000140  00000+0  00000+0 0  9999
2 54033   0.0178 127.9901 0000237   2.4626 193.9540  1.00273888 13837
